[{"CCSDS_OMM_VERS":"2.0","COMMENT":"GENERATED VIA SPACE-TRACK.ORG API","CREATION_DATE":"2004-08-15T23:35:38","ORIGINATOR":"18 SPCS","OBJECT_NAME":"COSMOS 57 DEB","OBJECT_ID":"1965-012AK","CENTER_NAME":"EARTH","REF_FRAME":"TEME","TIME_SYSTEM":"UTC","MEAN_ELEMENT_THEORY":"SGP4","EPOCH":"1965-03-03T01:31:36.669503","MEAN_MOTION":"15.89881462","ECCENTRICITY":"0.02219500","INCLINATION":"64.7263","RA_OF_ASC_NODE":"268.8002","ARG_OF_PERICENTER":"67.9022","MEAN_ANOMALY":"294.4546","EPHEMERIS_TYPE":"0","CLASSIFICATION_TYPE":"U","NORAD_CAT_ID":"1131","ELEMENT_SET_NO":"999","REV_AT_EPOCH":"138","BSTAR":"0.00000000000000","MEAN_MOTION_DOT":"0.01286734","MEAN_MOTION_DDOT":"0.0034304000000","SEMIMAJOR_AXIS":"6680.756","PERIOD":"90.572","APOAPSIS":"450.900","PERIAPSIS":"154.341","OBJECT_TYPE":"DEBRIS","RCS_SIZE":null,"COUNTRY_CODE":null,"LAUNCH_DATE":null,"SITE":null,"DECAY_DATE":"1965-03-07","FILE":"33911","GP_ID":"8699861","TLE_LINE0":"0 COSMOS 57 DEB","TLE_LINE1":"1 01131U 65012 AK 65062.06361886  .01286734 +34304-2 +00000-0 0  9994","TLE_LINE2":"2 01131 064.7263 268.8002 0221950 067.9022 294.4546 15.89881462001385"},{"CCSDS_OMM_VERS":"2.0","COMMENT":"GENERATED VIA SPACE-TRACK.ORG API","CREATION_DATE":"2004-08-15T23:35:38","ORIGINATOR":"18 SPCS","OBJECT_NAME":"COSMOS 57 DEB","OBJECT_ID":"1965-012DF","CENTER_NAME":"EARTH","REF_FRAME":"TEME","TIME_SYSTEM":"UTC","MEAN_ELEMENT_THEORY":"SGP4","EPOCH":"1965-03-03T02:28:57.424223","MEAN_MOTION":"15.95713462","ECCENTRICITY":"0.01877620","INCLINATION":"64.7681","RA_OF_ASC_NODE":"268.9938","ARG_OF_PERICENTER":"70.2171","MEAN_ANOMALY":"291.7978","EPHEMERIS_TYPE":"0","CLASSIFICATION_TYPE":"U","NORAD_CAT_ID":"1202","ELEMENT_SET_NO":"999","REV_AT_EPOCH":"142","BSTAR":"0.00000000000000","MEAN_MOTION_DOT":"0.02183635","MEAN_MOTION_DDOT":"0.0105550000000","SEMIMAJOR_AXIS":"6664.468","PERIOD":"90.241","APOAPSIS":"411.466","PERIAPSIS":"161.200","OBJECT_TYPE":"DEBRIS","RCS_SIZE":null,"COUNTRY_CODE":null,"LAUNCH_DATE":null,"SITE":null,"DECAY_DATE":"1965-03-09","FILE":"33911","GP_ID":"8699960","TLE_LINE0":"0 COSMOS 57 DEB","TLE_LINE1":"1 01202U 65012 DF 65062.10344241  .02183635 +10555-1 +00000-0 0  9992","TLE_LINE2":"2 01202 064.7681 268.9938 0187762 070.2171 291.7978 15.95713462001426"},{"CCSDS_OMM_VERS":"2.0","COMMENT":"GENERATED VIA SPACE-TRACK.ORG API","CREATION_DATE":"2004-08-15T23:35:38","ORIGINATOR":"18 SPCS","OBJECT_NAME":"COSMOS 57 DEB","OBJECT_ID":"1965-012CP","CENTER_NAME":"EARTH","REF_FRAME":"TEME","TIME_SYSTEM":"UTC","MEAN_ELEMENT_THEORY":"SGP4","EPOCH":"1965-03-03T04:59:20.088096","MEAN_MOTION":"16.23931325","ECCENTRICITY":"0.01062290","INCLINATION":"64.6761","RA_OF_ASC_NODE":"269.2259","ARG_OF_PERICENTER":"64.3833","MEAN_ANOMALY":"296.7311","EPHEMERIS_TYPE":"0","CLASSIFICATION_TYPE":"U","NORAD_CAT_ID":"1183","ELEMENT_SET_NO":"999","REV_AT_EPOCH":"141","BSTAR":"0.00000000000000","MEAN_MOTION_DOT":"0.00000000","MEAN_MOTION_DDOT":"0.0000000000000","SEMIMAJOR_AXIS":"6587.040","PERIOD":"88.673","APOAPSIS":"278.879","PERIAPSIS":"138.932","OBJECT_TYPE":"DEBRIS","RCS_SIZE":null,"COUNTRY_CODE":null,"LAUNCH_DATE":null,"SITE":null,"DECAY_DATE":"1965-03-08","FILE":"33911","GP_ID":"8699939","TLE_LINE0":"0 COSMOS 57 DEB","TLE_LINE1":"1 01183U 65012 CP 65062.20787139  .00000000 +00000-0 +00000-0 0  9993","TLE_LINE2":"2 01183 064.6761 269.2259 0106229 064.3833 296.7311 16.23931325001417"},{"CCSDS_OMM_VERS":"2.0","COMMENT":"GENERATED VIA SPACE-TRACK.ORG API","CREATION_DATE":"2004-08-15T23:35:38","ORIGINATOR":"18 SPCS","OBJECT_NAME":"COSMOS 57 DEB","OBJECT_ID":"1965-012EM","CENTER_NAME":"EARTH","REF_FRAME":"TEME","TIME_SYSTEM":"UTC","MEAN_ELEMENT_THEORY":"SGP4","EPOCH":"1965-03-03T12:49:26.967359","MEAN_MOTION":"15.82229186","ECCENTRICITY":"0.02697960","INCLINATION":"64.7057","RA_OF_ASC_NODE":"267.8423","ARG_OF_PERICENTER":"65.8800","MEAN_ANOMALY":"296.9183","EPHEMERIS_TYPE":"0","CLASSIFICATION_TYPE":"U","NORAD_CAT_ID":"1235","ELEMENT_SET_NO":"999","REV_AT_EPOCH":"68","BSTAR":"0.00000000000000","MEAN_MOTION_DOT":"0.00991903","MEAN_MOTION_DDOT":"0.0018853000000","SEMIMAJOR_AXIS":"6702.279","PERIOD":"91.010","APOAPSIS":"504.969","PERIAPSIS":"143.319","OBJECT_TYPE":"DEBRIS","RCS_SIZE":null,"COUNTRY_CODE":null,"LAUNCH_DATE":null,"SITE":null,"DECAY_DATE":"1965-03-17","FILE":"33911","GP_ID":"8700052","TLE_LINE0":"0 COSMOS 57 DEB","TLE_LINE1":"1 01235U 65012 EM 65062.53433990  .00991903 +18853-2 +00000-0 0  9998","TLE_LINE2":"2 01235 064.7057 267.8423 0269796 065.8800 296.9183 15.82229186000686"},{"CCSDS_OMM_VERS":"2.0","COMMENT":"GENERATED VIA SPACE-TRACK.ORG API","CREATION_DATE":"2004-08-15T23:35:38","ORIGINATOR":"18 SPCS","OBJECT_NAME":"COSMOS 57 DEB","OBJECT_ID":"1965-012BK","CENTER_NAME":"EARTH","REF_FRAME":"TEME","TIME_SYSTEM":"UTC","MEAN_ELEMENT_THEORY":"SGP4","EPOCH":"1965-03-03T17:50:54.630240","MEAN_MOTION":"16.02498745","ECCENTRICITY":"0.01720640","INCLINATION":"64.8367","RA_OF_ASC_NODE":"265.9373","ARG_OF_PERICENTER":"55.9689","MEAN_ANOMALY":"305.6537","EPHEMERIS_TYPE":"0","CLASSIFICATION_TYPE":"U","NORAD_CAT_ID":"1155","ELEMENT_SET_NO":"999","REV_AT_EPOCH":"150","BSTAR":"0.00000000000000","MEAN_MOTION_DOT":"0.01196133","MEAN_MOTION_DDOT":"0.0034490000000","SEMIMAJOR_AXIS":"6645.642","PERIOD":"89.859","APOAPSIS":"381.855","PERIAPSIS":"153.160","OBJECT_TYPE":"DEBRIS","RCS_SIZE":null,"COUNTRY_CODE":null,"LAUNCH_DATE":null,"SITE":null,"DECAY_DATE":"1965-03-07","FILE":"33911","GP_ID":"8699904","TLE_LINE0":"0 COSMOS 57 DEB","TLE_LINE1":"1 01155U 65012 BK 65062.74368785  .01196133 +34490-2 +00000-0 0  9999","TLE_LINE2":"2 01155 064.8367 265.9373 0172064 055.9689 305.6537 16.02498745001506"},{"CCSDS_OMM_VERS":"2.0","COMMENT":"GENERATED VIA SPACE-TRACK.ORG API","CREATION_DATE":"2004-08-15T23:35:38","ORIGINATOR":"18 SPCS","OBJECT_NAME":"COSMOS 57 DEB","OBJECT_ID":"1965-012G","CENTER_NAME":"EARTH","REF_FRAME":"TEME","TIME_SYSTEM":"UTC","MEAN_ELEMENT_THEORY":"SGP4","EPOCH":"1965-03-03T21:36:03.817152","MEAN_MOTION":"15.89071032","ECCENTRICITY":"0.02244720","INCLINATION":"64.7321","RA_OF_ASC_NODE":"265.8824","ARG_OF_PERICENTER":"57.6703","MEAN_ANOMALY":"304.4836","EPHEMERIS_TYPE":"0","CLASSIFICATION_TYPE":"U","NORAD_CAT_ID":"1104","ELEMENT_SET_NO":"999","REV_AT_EPOCH":"152","BSTAR":"0.00000000000000","MEAN_MOTION_DOT":"0.01036636","MEAN_MOTION_DDOT":"0.0022072000000","SEMIMAJOR_AXIS":"6683.027","PERIOD":"90.618","APOAPSIS":"454.907","PERIAPSIS":"154.877","OBJECT_TYPE":"DEBRIS","RCS_SIZE":null,"COUNTRY_CODE":null,"LAUNCH_DATE":null,"SITE":null,"DECAY_DATE":"1965-03-10","FILE":"33911","GP_ID":"8699838","TLE_LINE0":"0 COSMOS 57 DEB","TLE_LINE1":"1 01104U 65012  G 65062.90004418  .01036636 +22072-2 +00000-0 0  9995","TLE_LINE2":"2 01104 064.7321 265.8824 0224472 057.6703 304.4836 15.89071032001527"},{"CCSDS_OMM_VERS":"2.0","COMMENT":"GENERATED VIA SPACE-TRACK.ORG API","CREATION_DATE":"2004-08-15T23:35:38","ORIGINATOR":"18 SPCS","OBJECT_NAME":"COSMOS 57 DEB","OBJECT_ID":"1965-012EL","CENTER_NAME":"EARTH","REF_FRAME":"TEME","TIME_SYSTEM":"UTC","MEAN_ELEMENT_THEORY":"SGP4","EPOCH":"1965-03-03T23:39:13.962527","MEAN_MOTION":"15.64623165","ECCENTRICITY":"0.02875240","INCLINATION":"64.7134","RA_OF_ASC_NODE":"266.5461","ARG_OF_PERICENTER":"73.4733","MEAN_ANOMALY":"289.6655","EPHEMERIS_TYPE":"0","CLASSIFICATION_TYPE":"U","NORAD_CAT_ID":"1234","ELEMENT_SET_NO":"999","REV_AT_EPOCH":"151","BSTAR":"0.00000000000000","MEAN_MOTION_DOT":"0.00428957","MEAN_MOTION_DDOT":"0.0003031400000","SEMIMAJOR_AXIS":"6752.464","PERIOD":"92.034","APOAPSIS":"568.478","PERIAPSIS":"180.179","OBJECT_TYPE":"DEBRIS","RCS_SIZE":null,"COUNTRY_CODE":null,"LAUNCH_DATE":null,"SITE":null,"DECAY_DATE":"1965-03-20","FILE":"33911","GP_ID":"8700051","TLE_LINE0":"0 COSMOS 57 DEB","TLE_LINE1":"1 01234U 65012 EL 65062.98557827  .00428957 +30314-3 +00000-0 0  9993","TLE_LINE2":"2 01234 064.7134 266.5461 0287524 073.4733 289.6655 15.64623165001519"},{"CCSDS_OMM_VERS":"2.0","COMMENT":"GENERATED VIA SPACE-TRACK.ORG API","CREATION_DATE":"2004-08-15T23:35:38","ORIGINATOR":"18 SPCS","OBJECT_NAME":"COSMOS 57 DEB","OBJECT_ID":"1965-012AL","CENTER_NAME":"EARTH","REF_FRAME":"TEME","TIME_SYSTEM":"UTC","MEAN_ELEMENT_THEORY":"SGP4","EPOCH":"1965-03-04T00:54:31.486751","MEAN_MOTION":"15.88762690","ECCENTRICITY":"0.03799770","INCLINATION":"64.6723","RA_OF_ASC_NODE":"264.5005","ARG_OF_PERICENTER":"108.9343","MEAN_ANOMALY":"255.2218","EPHEMERIS_TYPE":"0","CLASSIFICATION_TYPE":"U","NORAD_CAT_ID":"1132","ELEMENT_SET_NO":"999","REV_AT_EPOCH":"154","BSTAR":"0.00000000000000","MEAN_MOTION_DOT":"0.00703445","MEAN_MOTION_DDOT":"0.0010130000000","SEMIMAJOR_AXIS":"6683.892","PERIOD":"90.636","APOAPSIS":"559.729","PERIAPSIS":"51.784","OBJECT_TYPE":"DEBRIS","RCS_SIZE":null,"COUNTRY_CODE":null,"LAUNCH_DATE":null,"SITE":null,"DECAY_DATE":"1965-03-07","FILE":"33911","GP_ID":"8699862","TLE_LINE0":"0 COSMOS 57 DEB","TLE_LINE1":"1 01132U 65012 AL 65063.03786443  .00703445 +10130-2 +00000-0 0  9996","TLE_LINE2":"2 01132 064.6723 264.5005 0379977 108.9343 255.2218 15.88762690001546"}]